{
  "type": "FeatureCollection",
  "features": [
    {
      "type": "Feature",
      "properties": {
        "norad_id": 34846,
        "name": "COSMOS 2251 DEB",
        "group": "cosmos-2251-debris",
        "lat": -25.847517299892335,
        "lon": 99.34318646840453,
        "alt_km": 752.412269896161,
        "timestamp": "2025-12-07T14:37:05.598850+00:00",
        "meta_object_name": "COSMOS 2251 DEB",
        "meta_object_id": "1993-036ABQ",
        "meta_epoch": "2025-12-06T21:04:22.758816",
        "meta_mean_motion": 14.47156782,
        "meta_eccentricity": 0.00259524,
        "meta_inclination": 74.0313,
        "meta_ra_of_asc_node": 272.736,
        "meta_arg_of_pericenter": 339.8554,
        "meta_mean_anomaly": 20.1577,
        "meta_ephemeris_type": 0,
        "meta_classification_type": "U",
        "meta_norad_cat_id": 34846,
        "meta_element_set_no": 999,
        "meta_rev_at_epoch": 87319,
        "meta_bstar": 0.0017127352,
        "meta_mean_motion_dot": 6.254e-05,
        "meta_mean_motion_ddot": 0,
        "tle_line1": "1 34846U 93036ABQ 25340.87804119  .00006254  00000+0  17127-2 0  9994",
        "tle_line2": "2 34846  74.0313 272.7360 0025952 339.8554  20.1577 14.47156782873197"
      },
      "geometry": {
        "type": "Point",
        "coordinates": [
          99.34318646840453,
          -25.847517299892335
        ]
      }
    },
    {
      "type": "Feature",
      "properties": {
        "norad_id": 34852,
        "name": "COSMOS 2251 DEB",
        "group": "cosmos-2251-debris",
        "lat": 70.49063587627079,
        "lon": 38.49753992853155,
        "alt_km": 760.1345166564561,
        "timestamp": "2025-12-07T14:37:05.598863+00:00",
        "meta_object_name": "COSMOS 2251 DEB",
        "meta_object_id": "1993-036ABW",
        "meta_epoch": "2025-12-06T13:05:14.276832",
        "meta_mean_motion": 14.36997377,
        "meta_eccentricity": 0.00159109,
        "meta_inclination": 74.0328,
        "meta_ra_of_asc_node": 274.3637,
        "meta_arg_of_pericenter": 19.1215,
        "meta_mean_anomaly": 341.0532,
        "meta_ephemeris_type": 0,
        "meta_classification_type": "U",
        "meta_norad_cat_id": 34852,
        "meta_element_set_no": 999,
        "meta_rev_at_epoch": 87445,
        "meta_bstar": 0.00023532028,
        "meta_mean_motion_dot": 6.72e-06,
        "meta_mean_motion_ddot": 0,
        "tle_line1": "1 34852U 93036ABW 25340.54530413  .00000672  00000+0  23532-3 0  9994",
        "tle_line2": "2 34852  74.0328 274.3637 0015910  19.1215 341.0532 14.36997377874457"
      },
      "geometry": {
        "type": "Point",
        "coordinates": [
          38.49753992853155,
          70.49063587627079
        ]
      }
    },
    {
      "type": "Feature",
      "properties": {
        "norad_id": 34854,
        "name": "COSMOS 2251 DEB",
        "group": "cosmos-2251-debris",
        "lat": -4.852961586706624,
        "lon": 167.2461908416609,
        "alt_km": 630.2471374950519,
        "timestamp": "2025-12-07T14:37:05.598873+00:00",
        "meta_object_name": "COSMOS 2251 DEB",
        "meta_object_id": "1993-036ABY",
        "meta_epoch": "2025-12-06T06:07:08.868864",
        "meta_mean_motion": 14.76535535,
        "meta_eccentricity": 0.00662211,
        "meta_inclination": 74.0279,
        "meta_ra_of_asc_node": 171.2927,
        "meta_arg_of_pericenter": 284.2541,
        "meta_mean_anomaly": 75.1285,
        "meta_ephemeris_type": 0,
        "meta_classification_type": "U",
        "meta_norad_cat_id": 34854,
        "meta_element_set_no": 999,
        "meta_rev_at_epoch": 71786,
        "meta_bstar": 0.0010983798,
        "meta_mean_motion_dot": 7.913e-05,
        "meta_mean_motion_ddot": 0,
        "tle_line1": "1 34854U 93036ABY 25340.25496376  .00007913  00000+0  10984-2 0  9994",
        "tle_line2": "2 34854  74.0279 171.2927 0066221 284.2541  75.1285 14.76535535717868"
      },
      "geometry": {
        "type": "Point",
        "coordinates": [
          167.2461908416609,
          -4.852961586706624
        ]
      }
    },
    {
      "type": "Feature",
      "properties": {
        "norad_id": 34856,
        "name": "COSMOS 2251 DEB",
        "group": "cosmos-2251-debris",
        "lat": -62.84188427675998,
        "lon": -50.580658351562136,
        "alt_km": 533.4787220357193,
        "timestamp": "2025-12-07T14:37:05.598883+00:00",
        "meta_object_name": "COSMOS 2251 DEB",
        "meta_object_id": "1993-036ACA",
        "meta_epoch": "2025-12-03T19:10:13.988064",
        "meta_mean_motion": 15.05251833,
        "meta_eccentricity": 0.00346135,
        "meta_inclination": 73.9972,
        "meta_ra_of_asc_node": 103.2267,
        "meta_arg_of_pericenter": 241.227,
        "meta_mean_anomaly": 245.1465,
        "meta_ephemeris_type": 0,
        "meta_classification_type": "U",
        "meta_norad_cat_id": 34856,
        "meta_element_set_no": 999,
        "meta_rev_at_epoch": 88977,
        "meta_bstar": 0.0030177118,
        "meta_mean_motion_dot": 0.00043929,
        "meta_mean_motion_ddot": 0,
        "tle_line1": "1 34856U 93036ACA 25337.79877301  .00043929  00000+0  30177-2 0  9995",
        "tle_line2": "2 34856  73.9972 103.2267 0034613 241.2270 245.1465 15.05251833889770"
      },
      "geometry": {
        "type": "Point",
        "coordinates": [
          -50.580658351562136,
          -62.84188427675998
        ]
      }
    },
    {
      "type": "Feature",
      "properties": {
        "norad_id": 34857,
        "name": "COSMOS 2251 DEB",
        "group": "cosmos-2251-debris",
        "lat": 43.185934964831645,
        "lon": 132.22270028342624,
        "alt_km": 737.9193044938847,
        "timestamp": "2025-12-07T14:37:05.598894+00:00",
        "meta_object_name": "COSMOS 2251 DEB",
        "meta_object_id": "1993-036ACB",
        "meta_epoch": "2025-12-06T12:37:20.123904",
        "meta_mean_motion": 14.5878614,
        "meta_eccentricity": 0.00660925,
        "meta_inclination": 74.0153,
        "meta_ra_of_asc_node": 118.68,
        "meta_arg_of_pericenter": 244.2195,
        "meta_mean_anomaly": 234.9427,
        "meta_ephemeris_type": 0,
        "meta_classification_type": "U",
        "meta_norad_cat_id": 34857,
        "meta_element_set_no": 999,
        "meta_rev_at_epoch": 87810,
        "meta_bstar": 0.0019760748,
        "meta_mean_motion_dot": 9.501e-05,
        "meta_mean_motion_ddot": 0,
        "tle_line1": "1 34857U 93036ACB 25340.52592736  .00009501  00000+0  19761-2 0  9991",
        "tle_line2": "2 34857  74.0153 118.6800 0066092 244.2195 234.9427 14.58786140878102"
      },
      "geometry": {
        "type": "Point",
        "coordinates": [
          132.22270028342624,
          43.185934964831645
        ]
      }
    },
    {
      "type": "Feature",
      "properties": {
        "norad_id": 34859,
        "name": "COSMOS 2251 DEB",
        "group": "cosmos-2251-debris",
        "lat": 55.07351752781372,
        "lon": 14.531939714006125,
        "alt_km": 520.583541634498,
        "timestamp": "2025-12-07T14:37:05.598904+00:00",
        "meta_object_name": "COSMOS 2251 DEB",
        "meta_object_id": "1993-036ACD",
        "meta_epoch": "2025-12-06T00:24:12.426336",
        "meta_mean_motion": 15.1304626,
        "meta_eccentricity": 0.00037121,
        "meta_inclination": 74.031,
        "meta_ra_of_asc_node": 353.6246,
        "meta_arg_of_pericenter": 322.7651,
        "meta_mean_anomaly": 65.2491,
        "meta_ephemeris_type": 0,
        "meta_classification_type": "U",
        "meta_norad_cat_id": 34859,
        "meta_element_set_no": 999,
        "meta_rev_at_epoch": 88257,
        "meta_bstar": 0.0071124409,
        "meta_mean_motion_dot": 0.00128013,
        "meta_mean_motion_ddot": 0,
        "tle_line1": "1 34859U 93036ACD 25340.01681049  .00128013  00000+0  71124-2 0  9994",
        "tle_line2": "2 34859  74.0310 353.6246 0003712 322.7651  65.2491 15.13046260882579"
      },
      "geometry": {
        "type": "Point",
        "coordinates": [
          14.531939714006125,
          55.07351752781372
        ]
      }
    },
    {
      "type": "Feature",
      "properties": {
        "norad_id": 34861,
        "name": "COSMOS 2251 DEB",
        "group": "cosmos-2251-debris",
        "lat": -2.1228247042643043,
        "lon": -118.06245659053252,
        "alt_km": 565.2720981227922,
        "timestamp": "2025-12-07T14:37:05.598914+00:00",
        "meta_object_name": "COSMOS 2251 DEB",
        "meta_object_id": "1993-036ACF",
        "meta_epoch": "2025-12-06T05:58:45.195744",
        "meta_mean_motion": 15.01955831,
        "meta_eccentricity": 0.00063632,
        "meta_inclination": 74.0187,
        "meta_ra_of_asc_node": 64.1032,
        "meta_arg_of_pericenter": 69.169,
        "meta_mean_anomaly": 322.2406,
        "meta_ephemeris_type": 0,
        "meta_classification_type": "U",
        "meta_norad_cat_id": 34861,
        "meta_element_set_no": 999,
        "meta_rev_at_epoch": 87995,
        "meta_bstar": 0.0045668767,
        "meta_mean_motion_dot": 0.00060299,
        "meta_mean_motion_ddot": 0,
        "tle_line1": "1 34861U 93036ACF 25340.24913421  .00060299  00000+0  45669-2 0  9990",
        "tle_line2": "2 34861  74.0187  64.1032 0006363  69.1690 322.2406 15.01955831879951"
      },
      "geometry": {
        "type": "Point",
        "coordinates": [
          -118.06245659053252,
          -2.1228247042643043
        ]
      }
    }
  ]
}